{
  "norad_id": 54230,
  "name": "ZHONGXING-19",
  "history": [
    {
      "epoch": "2026-03-28T20:41:39.099840Z",
      "apogee_km": 35796.78034011895,
      "perigee_km": 35776.469574284165,
      "latitude_deg": 0.022707889452921147,
      "longitude_deg": 163.16204999129243,
      "height_km": 35781.19253335877,
      "semi_major_axis_km": 42164.76195720156,
      "eccentricity": 0.00024085,
      "inclination_deg": 0.0203,
      "raan_deg": 140.9646,
      "arg_perigee_deg": 220.0812,
      "mean_anomaly_deg": 298.8066,
      "mean_motion_rev_day": 1.00271678
    },
    {
      "epoch": "2026-03-29T03:32:26.901312Z",
      "apogee_km": 35796.77029726642,
      "perigee_km": 35776.53119914728,
      "latitude_deg": -0.035016206592685346,
      "longitude_deg": 163.20546540148095,
      "height_km": 35778.67320223824,
      "semi_major_axis_km": 42164.78774820685,
      "eccentricity": 0.00024,
      "inclination_deg": 0.0197,
      "raan_deg": 145.7303,
      "arg_perigee_deg": 214.4392,
      "mean_anomaly_deg": 42.6638,
      "mean_motion_rev_day": 1.00271586
    },
    {
      "epoch": "2026-03-29T23:28:51.822048Z",
      "apogee_km": 35796.75631870136,
      "perigee_km": 35776.48350357848,
      "latitude_deg": -0.003320821026719293,
      "longitude_deg": 163.17679138975657,
      "height_km": 35776.47366066894,
      "semi_major_axis_km": 42164.75691113992,
      "eccentricity": 0.0002404,
      "inclination_deg": 0.0181,
      "raan_deg": 137.8532,
      "arg_perigee_deg": 223.8322,
      "mean_anomaly_deg": 341.0707,
      "mean_motion_rev_day": 1.00271696
    },
    {
      "epoch": "2026-03-30T05:12:38.074176Z",
      "apogee_km": 35796.78979300668,
      "perigee_km": 35776.43096638187,
      "latitude_deg": -0.03268204899536419,
      "longitude_deg": 163.21063034929244,
      "height_km": 35782.056290865665,
      "semi_major_axis_km": 42164.74737969428,
      "eccentricity": 0.00024142,
      "inclination_deg": 0.0166,
      "raan_deg": 134.231,
      "arg_perigee_deg": 228.0515,
      "mean_anomaly_deg": 66.6514,
      "mean_motion_rev_day": 1.0027173
    },
    {
      "epoch": "2026-03-30T10:20:38.528736Z",
      "apogee_km": 35796.78560568529,
      "perigee_km": 35776.411605440684,
      "latitude_deg": -0.004150096533461971,
      "longitude_deg": 163.20126929955617,
      "height_km": 35794.32555680241,
      "semi_major_axis_km": 42164.735605562986,
      "eccentricity": 0.0002416,
      "inclination_deg": 0.0129,
      "raan_deg": 122.0937,
      "arg_perigee_deg": 240.5331,
      "mean_anomaly_deg": 143.5199,
      "mean_motion_rev_day": 1.00271772
    },
    {
      "epoch": "2026-03-30T15:18:51.719040Z",
      "apogee_km": 35796.745854589644,
      "perigee_km": 35776.43173299671,
      "latitude_deg": 0.021328186050701997,
      "longitude_deg": 163.16751487877463,
      "height_km": 35794.15380389665,
      "semi_major_axis_km": 42164.72579379318,
      "eccentricity": 0.00024089,
      "inclination_deg": 0.014,
      "raan_deg": 118.794,
      "arg_perigee_deg": 244.4202,
      "mean_anomaly_deg": 217.6918,
      "mean_motion_rev_day": 1.00271807
    },
    {
      "epoch": "2026-03-31T15:26:16.595232Z",
      "apogee_km": 35796.74047110609,
      "perigee_km": 35776.3580617649,
      "latitude_deg": 0.020136454007488726,
      "longitude_deg": 163.16511965142755,
      "height_km": 35794.10212998568,
      "semi_major_axis_km": 42164.6862664355,
      "eccentricity": 0.0002417,
      "inclination_deg": 0.0197,
      "raan_deg": 107.0035,
      "arg_perigee_deg": 258.6789,
      "mean_anomaly_deg": 218.0685,
      "mean_motion_rev_day": 1.00271948
    },
    {
      "epoch": "2026-04-01T15:23:45.786624Z",
      "apogee_km": 35796.75011942847,
      "perigee_km": 35776.27496561062,
      "latitude_deg": 0.018697665804548513,
      "longitude_deg": 163.1637557556613,
      "height_km": 35794.337876972284,
      "semi_major_axis_km": 42164.649542519546,
      "eccentricity": 0.0002428,
      "inclination_deg": 0.025,
      "raan_deg": 98.4063,
      "arg_perigee_deg": 269.8016,
      "mean_anomaly_deg": 215.8995,
      "mean_motion_rev_day": 1.00272079
    },
    {
      "epoch": "2026-04-02T13:40:38.503776Z",
      "apogee_km": 35796.76397587501,
      "perigee_km": 35776.19438951645,
      "latitude_deg": 0.01244870865251034,
      "longitude_deg": 163.17442971659096,
      "height_km": 35796.18765600888,
      "semi_major_axis_km": 42164.61618269573,
      "eccentricity": 0.00024392,
      "inclination_deg": 0.0299,
      "raan_deg": 90.5303,
      "arg_perigee_deg": 279.9636,
      "mean_anomaly_deg": 188.7496,
      "mean_motion_rev_day": 1.00272198
    },
    {
      "epoch": "2026-04-06T15:11:26.880864Z",
      "apogee_km": 35796.95444182195,
      "perigee_km": 35775.872166669826,
      "latitude_deg": 0.024018773911437363,
      "longitude_deg": 163.16504010547555,
      "height_km": 35795.25871706347,
      "semi_major_axis_km": 42164.55030424589,
      "eccentricity": 0.00025,
      "inclination_deg": 0.0408,
      "raan_deg": 75.8104,
      "arg_perigee_deg": 302.2379,
      "mean_anomaly_deg": 207.909,
      "mean_motion_rev_day": 1.00272433
    },
    {
      "epoch": "2026-04-07T11:43:42.360672Z",
      "apogee_km": 35796.913988834865,
      "perigee_km": 35775.89243566665,
      "latitude_deg": 0.02060369751532665,
      "longitude_deg": 163.19205753481148,
      "height_km": 35795.496189700054,
      "semi_major_axis_km": 42164.54021225076,
      "eccentricity": 0.00024928,
      "inclination_deg": 0.0426,
      "raan_deg": 72.596,
      "arg_perigee_deg": 306.789,
      "mean_anomaly_deg": 155.4825,
      "mean_motion_rev_day": 1.00272469
    },
    {
      "epoch": "2026-04-07T18:34:19.783776Z",
      "apogee_km": 35796.94069165614,
      "perigee_km": 35775.86685417783,
      "latitude_deg": 0.009521623081461683,
      "longitude_deg": 163.15270063439056,
      "height_km": 35788.08749921331,
      "semi_major_axis_km": 42164.54077291699,
      "eccentricity": 0.0002499,
      "inclination_deg": 0.043,
      "raan_deg": 71.8683,
      "arg_perigee_deg": 307.901,
      "mean_anomaly_deg": 258.036,
      "mean_motion_rev_day": 1.00272467
    },
    {
      "epoch": "2026-04-09T21:54:48.601728Z",
      "apogee_km": 35795.80381315422,
      "perigee_km": 35778.001733361954,
      "latitude_deg": 0.047822385569554,
      "longitude_deg": 163.14823033872952,
      "height_km": 35781.030574307064,
      "semi_major_axis_km": 42165.03977325809,
      "eccentricity": 0.0002111,
      "inclination_deg": 0.0373,
      "raan_deg": 264.9764,
      "arg_perigee_deg": 118.2515,
      "mean_anomaly_deg": 306.7939,
      "mean_motion_rev_day": 1.00270687
    },
    {
      "epoch": "2026-04-10T03:02:46.911840Z",
      "apogee_km": 35795.78328723645,
      "perigee_km": 35778.02674474269,
      "latitude_deg": 0.019447459870007747,
      "longitude_deg": 163.17674211445532,
      "height_km": 35778.24945090316,
      "semi_major_axis_km": 42165.04201598957,
      "eccentricity": 0.00021056,
      "inclination_deg": 0.0368,
      "raan_deg": 264.917,
      "arg_perigee_deg": 118.3788,
      "mean_anomaly_deg": 23.9291,
      "mean_motion_rev_day": 1.00270679
    },
    {
      "epoch": "2026-04-13T06:41:28.434912Z",
      "apogee_km": 35795.25241032756,
      "perigee_km": 35777.67736096958,
      "latitude_deg": -0.027248490636216257,
      "longitude_deg": 163.19613177574007,
      "height_km": 35784.02855655576,
      "semi_major_axis_km": 42164.601885648575,
      "eccentricity": 0.00020841,
      "inclination_deg": 0.0287,
      "raan_deg": 262.8564,
      "arg_perigee_deg": 124.8996,
      "mean_anomaly_deg": 77.2588,
      "mean_motion_rev_day": 1.00272249
    },
    {
      "epoch": "2026-04-14T18:36:38.755584Z",
      "apogee_km": 35795.15093648268,
      "perigee_km": 35777.88872597597,
      "latitude_deg": 0.0270747734098963,
      "longitude_deg": 163.14876585277884,
      "height_km": 35787.821741758955,
      "semi_major_axis_km": 42164.656831229324,
      "eccentricity": 0.0002047,
      "inclination_deg": 0.0246,
      "raan_deg": 262.0555,
      "arg_perigee_deg": 125.3745,
      "mean_anomaly_deg": 257.8554,
      "mean_motion_rev_day": 1.00272053
    },
    {
      "epoch": "2026-04-15T20:14:38.679072Z",
      "apogee_km": 35795.05836992941,
      "perigee_km": 35778.04913368013,
      "latitude_deg": 0.03698775046621768,
      "longitude_deg": 163.14845490211005,
      "height_km": 35784.038680269085,
      "semi_major_axis_km": 42164.69075180477,
      "eccentricity": 0.0002017,
      "inclination_deg": 0.0215,
      "raan_deg": 261.8955,
      "arg_perigee_deg": 125.4488,
      "mean_anomaly_deg": 283.4949,
      "mean_motion_rev_day": 1.00271932
    },
    {
      "epoch": "2026-04-16T19:54:14.266656Z",
      "apogee_km": 35794.983811883896,
      "perigee_km": 35778.17695553474,
      "latitude_deg": 0.034163782202996956,
      "longitude_deg": 163.14791279060765,
      "height_km": 35784.6682896356,
      "semi_major_axis_km": 42164.71738370932,
      "eccentricity": 0.0001993,
      "inclination_deg": 0.0185,
      "raan_deg": 261.8262,
      "arg_perigee_deg": 125.3695,
      "mean_anomaly_deg": 279.5143,
      "mean_motion_rev_day": 1.00271837
    },
    {
      "epoch": "2026-04-17T21:33:57.257568Z",
      "apogee_km": 35794.89282010309,
      "perigee_km": 35778.312801114764,
      "latitude_deg": 0.037559490556036246,
      "longitude_deg": 163.15257085290764,
      "height_km": 35781.250113640126,
      "semi_major_axis_km": 42164.73981060893,
      "eccentricity": 0.00019661,
      "inclination_deg": 0.0153,
      "raan_deg": 261.7818,
      "arg_perigee_deg": 125.4084,
      "mean_anomaly_deg": 305.5035,
      "mean_motion_rev_day": 1.00271757
    },
    {
      "epoch": "2026-04-18T20:01:51.796128Z",
      "apogee_km": 35794.84290112186,
      "perigee_km": 35778.38178297872,
      "latitude_deg": 0.032094067788552894,
      "longitude_deg": 163.15053905134312,
      "height_km": 35784.182166189166,
      "semi_major_axis_km": 42164.749342050294,
      "eccentricity": 0.0001952,
      "inclination_deg": 0.0132,
      "raan_deg": 257.7777,
      "arg_perigee_deg": 129.3782,
      "mean_anomaly_deg": 283.438,
      "mean_motion_rev_day": 1.00271723
    },
    {
      "epoch": "2026-04-19T19:46:35.471424Z",
      "apogee_km": 35794.810571277885,
      "perigee_km": 35778.41691618872,
      "latitude_deg": 0.031863285284590065,
      "longitude_deg": 163.15308990535763,
      "height_km": 35784.60594102263,
      "semi_major_axis_km": 42164.750743733304,
      "eccentricity": 0.0001944,
      "inclination_deg": 0.0151,
      "raan_deg": 255.6727,
      "arg_perigee_deg": 131.5667,
      "mean_anomaly_deg": 280.512,
      "mean_motion_rev_day": 1.00271718
    },
    {
      "epoch": "2026-04-20T14:35:54.093408Z",
      "apogee_km": 35794.83194889349,
      "perigee_km": 35778.38432511045,
      "latitude_deg": -0.012629560224734672,
      "longitude_deg": 163.16914513652875,
      "height_km": 35793.691072911744,
      "semi_major_axis_km": 42164.74513700197,
      "eccentricity": 0.00019504,
      "inclination_deg": 0.0167,
      "raan_deg": 252.3183,
      "arg_perigee_deg": 135.211,
      "mean_anomaly_deg": 203.323,
      "mean_motion_rev_day": 1.00271738
    },
    {
      "epoch": "2026-04-21T20:39:51.638976Z",
      "apogee_km": 35794.86516868406,
      "perigee_km": 35778.311297557535,
      "latitude_deg": 0.035942107063549014,
      "longitude_deg": 163.16261318588573,
      "height_km": 35782.6137084214,
      "semi_major_axis_km": 42164.7252331208,
      "eccentricity": 0.0001963,
      "inclination_deg": 0.0178,
      "raan_deg": 250.4286,
      "arg_perigee_deg": 137.9958,
      "mean_anomaly_deg": 294.6529,
      "mean_motion_rev_day": 1.00271809
    }
  ]
}